[{"HACK_UUID": "e91b3f7c-0de4-490c-8794-ee9664f33b32", "SITE_NAME": "Abbotts Park and Pavilion", "TOWN": "Leyton", "POST_CODE": "E10 7LZ", "HACK_TYPE": "Venue", "HACK_WIFI": "Y", "HACK_MARRIAGE": "Y", "HACK_CATERING": "N", "HACK_ALCOHOL": "Y", "HACK_LATE": "Y", "HACK_MEETING_SIZE": "30"}, {"HACK_UUID": "dee0b14b-e53b-44f9-943c-4e2c51509e6a", "SITE_NAME": "Acacia Road Playground", "TOWN": "Leytonstone", "POST_CODE": "E174JF", "HACK_TYPE": "Meeting Room", "HACK_WIFI": "N", "HACK_MARRIAGE": "Y", "HACK_CATERING": "Y", "HACK_ALCOHOL": "Y", "HACK_LATE": "N", "HACK_MEETING_SIZE": "8"}, {"HACK_UUID": "58fd991f-d094-4de6-992c-e8aeb8ef5b5e", "SITE_NAME": "Ainslie Wood Sports Ground", "TOWN": "Chingford", "POST_CODE": "E17 5JR", "HACK_TYPE": "Hall", "HACK_WIFI": "Y", "HACK_MARRIAGE": "N", "HACK_CATERING": "Y", "HACK_ALCOHOL": "N", "HACK_LATE": "N", "HACK_MEETING_SIZE": "100"}, {"HACK_UUID": "68d24073-1946-4758-8207-3630b0ea98dc", "SITE_NAME": "Amenity Land corner of Hainault Road (69)", "TOWN": "Leytonstone", "POST_CODE": "E10 5QH", "HACK_TYPE": "Meeting Room", "HACK_WIFI": "N", "HACK_MARRIAGE": "N", "HACK_CATERING": "Y", "HACK_ALCOHOL": "N", "HACK_LATE": "N", "HACK_MEETING_SIZE": "200"}, {"HACK_UUID": "697a79d1-e230-4bc2-a13b-a9e5a80c43d3", "SITE_NAME": "Bluehouse Field", "TOWN": "Chingford", "POST_CODE": "E10 6AE", "HACK_TYPE": "Venue", "HACK_WIFI": "N", "HACK_MARRIAGE": "Y", "HACK_CATERING": "Y", "HACK_ALCOHOL": "Y", "HACK_LATE": "N", "HACK_MEETING_SIZE": "50"}, {"HACK_UUID": "841d6ff0-9023-45a0-82fc-632646389f1b", "SITE_NAME": "Bridge Road Playground", "TOWN": "Walthamstow", "POST_CODE": "E10 7PB", "HACK_TYPE": "Meeting Room", "HACK_WIFI": "Y", "HACK_MARRIAGE": "N", "HACK_CATERING": "Y", "HACK_ALCOHOL": "Y", "HACK_LATE": "N", "HACK_MEETING_SIZE": "4"}, {"HACK_UUID": "e9307998-41da-4822-bd40-6b731befb3e4", "SITE_NAME": "Cann Hall Park", "TOWN": "Leyton", "POST_CODE": "E10 6DA", "HACK_TYPE": "Hall", "HACK_WIFI": "N", "HACK_MARRIAGE": "N", "HACK_CATERING": "N", "HACK_ALCOHOL": "Y", "HACK_LATE": "Y", "HACK_MEETING_SIZE": "12"}, {"HACK_UUID": "16f72424-5d5a-45c5-8223-2a86536a97b4", "SITE_NAME": "Cavendish Playing Fields", "TOWN": "Chingford", "POST_CODE": "E4 8ST", "HACK_TYPE": "Meeting Room", "HACK_WIFI": "Y", "HACK_MARRIAGE": "Y", "HACK_CATERING": "Y", "HACK_ALCOHOL": "Y", "HACK_LATE": "Y", "HACK_MEETING_SIZE": "75"}, {"HACK_UUID": "398c6653-22b9-4354-8fa1-655c6ddb5411", "SITE_NAME": "Chase Lane Park", "TOWN": "Chingford", "POST_CODE": "E11 1HE", "HACK_TYPE": "Venue", "HACK_WIFI": "N", "HACK_MARRIAGE": "Y", "HACK_CATERING": "N", "HACK_ALCOHOL": "Y", "HACK_LATE": "Y", "HACK_MEETING_SIZE": "4"}, {"HACK_UUID": "1a443736-38ec-4dcb-a74a-20682ec29ba8", "SITE_NAME": "Cheney Row Open Space", "TOWN": "Walthamstow", "POST_CODE": "E17 6QB", "HACK_TYPE": "Hall", "HACK_WIFI": "N", "HACK_MARRIAGE": "Y", "HACK_CATERING": "N", "HACK_ALCOHOL": "N", "HACK_LATE": "Y", "HACK_MEETING_SIZE": "4"}, {"HACK_UUID": "0b35ddb2-3d35-4188-85de-61ed7431b8aa", "SITE_NAME": "Conservation Area Greenway Avenue", "TOWN": "Walthamstow", "POST_CODE": "E17 7LF", "HACK_TYPE": "Venue", "HACK_WIFI": "Y", "HACK_MARRIAGE": "N", "HACK_CATERING": "N", "HACK_ALCOHOL": "N", "HACK_LATE": "Y", "HACK_MEETING_SIZE": "40"}, {"HACK_UUID": "472fb06f-c9f7-49a5-a61d-16a4e872086a", "SITE_NAME": "Coppermill Park", "TOWN": "Walthamstow", "POST_CODE": "E4 8DB", "HACK_TYPE": "Venue", "HACK_WIFI": "Y", "HACK_MARRIAGE": "N", "HACK_CATERING": "Y", "HACK_ALCOHOL": "N", "HACK_LATE": "Y", "HACK_MEETING_SIZE": "20"}, {"HACK_UUID": "296339f2-b705-4893-b40c-e18e2520bcb2", "SITE_NAME": "Coronation Gardens", "TOWN": "Leyton", "POST_CODE": "E17 5PE", "HACK_TYPE": "Hall", "HACK_WIFI": "N", "HACK_MARRIAGE": "N", "HACK_CATERING": "Y", "HACK_ALCOHOL": "N", "HACK_LATE": "Y", "HACK_MEETING_SIZE": "40"}, {"HACK_UUID": "0e9bca35-f10f-4651-833d-bfe341b3c2a9", "SITE_NAME": "Dames Road Playground", "TOWN": "Forest Gate", "POST_CODE": "E17 6BJ", "HACK_TYPE": "Venue", "HACK_WIFI": "Y", "HACK_MARRIAGE": "Y", "HACK_CATERING": "Y", "HACK_ALCOHOL": "N", "HACK_LATE": "Y", "HACK_MEETING_SIZE": "50"}, {"HACK_UUID": "ff956ba4-1de7-4e6a-8bea-864e078f3558", "SITE_NAME": "Drysdale Park", "TOWN": "Chingford", "POST_CODE": "E4 7EN", "HACK_TYPE": "Meeting Room", "HACK_WIFI": "N", "HACK_MARRIAGE": "Y", "HACK_CATERING": "Y", "HACK_ALCOHOL": "Y", "HACK_LATE": "N", "HACK_MEETING_SIZE": "20"}, {"HACK_UUID": "0bc39e7b-df87-4fad-98aa-9bf6cf1a7696", "SITE_NAME": "Higham Hill Recreation Ground", "TOWN": "Walthamstow", "POST_CODE": "E10 7HU", "HACK_TYPE": "Meeting Room", "HACK_WIFI": "Y", "HACK_MARRIAGE": "N", "HACK_CATERING": "Y", "HACK_ALCOHOL": "N", "HACK_LATE": "Y", "HACK_MEETING_SIZE": "75"}, {"HACK_UUID": "d549525e-df73-41a1-8ff4-c3c1199960cf", "SITE_NAME": "Keatley Green Play Area", "TOWN": "Chingford", "POST_CODE": "E17 5HS", "HACK_TYPE": "Meeting Room", "HACK_WIFI": "Y", "HACK_MARRIAGE": "N", "HACK_CATERING": "Y", "HACK_ALCOHOL": "N", "HACK_LATE": "N", "HACK_MEETING_SIZE": "20"}, {"HACK_UUID": "a32dbf50-089a-4a20-9d42-e3fd27ecd9cc", "SITE_NAME": "Kitchener Park", "TOWN": "Walthamstow", "POST_CODE": "E11 4LF", "HACK_TYPE": "Meeting Room", "HACK_WIFI": "N", "HACK_MARRIAGE": "N", "HACK_CATERING": "Y", "HACK_ALCOHOL": "N", "HACK_LATE": "N", "HACK_MEETING_SIZE": "100"}, {"HACK_UUID": "8482ea7e-3354-4755-bd20-b530f9d9c823", "SITE_NAME": "Land Area 9a Shaw Square", "TOWN": "Walthamstow", "POST_CODE": "E17", "HACK_TYPE": "Hall", "HACK_WIFI": "N", "HACK_MARRIAGE": "Y", "HACK_CATERING": "N", "HACK_ALCOHOL": "N", "HACK_LATE": "N", "HACK_MEETING_SIZE": "20"}, {"HACK_UUID": "a3a6a402-bae2-4ada-aff9-3736b9d43551", "SITE_NAME": "Larks Wood & Playing Field", "TOWN": "Chingford", "POST_CODE": "E4 6LQ", "HACK_TYPE": "Meeting Room", "HACK_WIFI": "N", "HACK_MARRIAGE": "Y", "HACK_CATERING": "N", "HACK_ALCOHOL": "N", "HACK_LATE": "Y", "HACK_MEETING_SIZE": "75"}, {"HACK_UUID": "031b0755-265e-4276-915b-aec6b735ec5c", "SITE_NAME": "Leyton Manor Park", "TOWN": "Leytonstone", "POST_CODE": "E11 1BA", "HACK_TYPE": "Meeting Room", "HACK_WIFI": "N", "HACK_MARRIAGE": "N", "HACK_CATERING": "Y", "HACK_ALCOHOL": "Y", "HACK_LATE": "Y", "HACK_MEETING_SIZE": "200"}, {"HACK_UUID": "b1da3ebe-ba7a-41fa-9bb5-ae22f4e78306", "SITE_NAME": "Leyton Youth Sports Club & Ground", "TOWN": "Leyton", "POST_CODE": "E10 6RJ", "HACK_TYPE": "Hall", "HACK_WIFI": "Y", "HACK_MARRIAGE": "N", "HACK_CATERING": "Y", "HACK_ALCOHOL": "N", "HACK_LATE": "N", "HACK_MEETING_SIZE": "12"}, {"HACK_UUID": "c78c043a-fe54-41d6-b5b9-903b13a88243", "SITE_NAME": "Lloyd Park - Biomass Building. The Friends building", "TOWN": "Walthamstow", "POST_CODE": "E15 2DD", "HACK_TYPE": "Meeting Room", "HACK_WIFI": "Y", "HACK_MARRIAGE": "Y", "HACK_CATERING": "N", "HACK_ALCOHOL": "Y", "HACK_LATE": "N", "HACK_MEETING_SIZE": "50"}, {"HACK_UUID": "76efc0ed-a36b-4bf4-abdb-19868252cc7a", "SITE_NAME": "Lloyd Park - bowling clubhouse & Green", "TOWN": "Walthamstow", "POST_CODE": "E10 6AE", "HACK_TYPE": "Meeting Room", "HACK_WIFI": "Y", "HACK_MARRIAGE": "N", "HACK_CATERING": "Y", "HACK_ALCOHOL": "Y", "HACK_LATE": "Y", "HACK_MEETING_SIZE": "100"}, {"HACK_UUID": "9ce3c9ff-5c74-443e-bcc1-43c0a46b734e", "SITE_NAME": "Low Hall Sports Ground", "TOWN": "Walthamstow", "POST_CODE": "E17 8AX", "HACK_TYPE": "Venue", "HACK_WIFI": "Y", "HACK_MARRIAGE": "N", "HACK_CATERING": "N", "HACK_ALCOHOL": "Y", "HACK_LATE": "N", "HACK_MEETING_SIZE": "30"}, {"HACK_UUID": "0cc9eb35-ed55-4623-9046-87d8d19e6481", "SITE_NAME": "Mallinson Park Woods", "TOWN": "Woodford Green", "POST_CODE": "E17", "HACK_TYPE": "Hall", "HACK_WIFI": "Y", "HACK_MARRIAGE": "N", "HACK_CATERING": "Y", "HACK_ALCOHOL": "Y", "HACK_LATE": "N", "HACK_MEETING_SIZE": "20"}, {"HACK_UUID": "3800d63c-d273-45a6-ade2-ba1e75779d3e", "SITE_NAME": "Mansfield Park", "TOWN": "Chingford", "POST_CODE": "E15 2AU", "HACK_TYPE": "Meeting Room", "HACK_WIFI": "Y", "HACK_MARRIAGE": "N", "HACK_CATERING": "N", "HACK_ALCOHOL": "N", "HACK_LATE": "N", "HACK_MEETING_SIZE": "100"}, {"HACK_UUID": "c9350799-680c-4df5-8319-d48102f72c63", "SITE_NAME": "Memorial Garden 15 Bellamy Road", "TOWN": "Chingford", "POST_CODE": "E17 4BF", "HACK_TYPE": "Venue", "HACK_WIFI": "Y", "HACK_MARRIAGE": "N", "HACK_CATERING": "N", "HACK_ALCOHOL": "N", "HACK_LATE": "Y", "HACK_MEETING_SIZE": "30"}, {"HACK_UUID": "ca7448e7-6c55-4876-ae6c-9a07231937ce", "SITE_NAME": "Montague Road Play Area", "TOWN": "Leytonstone", "POST_CODE": "E17 7AT", "HACK_TYPE": "Hall", "HACK_WIFI": "N", "HACK_MARRIAGE": "N", "HACK_CATERING": "Y", "HACK_ALCOHOL": "N", "HACK_LATE": "N", "HACK_MEETING_SIZE": "4"}, {"HACK_UUID": "56942867-435e-44a3-abdb-e238caef916f", "SITE_NAME": "Outwood Common Playground", "TOWN": "Billericay", "POST_CODE": "E11 4JU", "HACK_TYPE": "Meeting Room", "HACK_WIFI": "N", "HACK_MARRIAGE": "N", "HACK_CATERING": "N", "HACK_ALCOHOL": "Y", "HACK_LATE": "N", "HACK_MEETING_SIZE": "8"}, {"HACK_UUID": "faeabcb3-8ddb-44de-9b96-cab3ded04844", "SITE_NAME": "Queens Road Playground", "TOWN": "Walthamstow", "POST_CODE": "E17 3LJ", "HACK_TYPE": "Venue", "HACK_WIFI": "N", "HACK_MARRIAGE": "Y", "HACK_CATERING": "Y", "HACK_ALCOHOL": "Y", "HACK_LATE": "Y", "HACK_MEETING_SIZE": "30"}, {"HACK_UUID": "fda97f97-e3cc-46ae-9c61-0e67795bb22b", "SITE_NAME": "Rolls Park Sports Complex", "TOWN": "Chingford", "POST_CODE": "E4 9JG", "HACK_TYPE": "Meeting Room", "HACK_WIFI": "Y", "HACK_MARRIAGE": "N", "HACK_CATERING": "N", "HACK_ALCOHOL": "N", "HACK_LATE": "Y", "HACK_MEETING_SIZE": "100"}, {"HACK_UUID": "a06c92fa-25b7-4b7b-93b0-4b0f4d20e4f4", "SITE_NAME": "Salisbury Hall Playing Fields", "TOWN": "Chingford", "POST_CODE": "E4 8ST", "HACK_TYPE": "Venue", "HACK_WIFI": "Y", "HACK_MARRIAGE": "Y", "HACK_CATERING": "Y", "HACK_ALCOHOL": "Y", "HACK_LATE": "N", "HACK_MEETING_SIZE": "50"}, {"HACK_UUID": "a847b1d1-a889-480b-945f-2083ed642593", "SITE_NAME": "Seymour Road Playground", "TOWN": "Leytonstone", "POST_CODE": "E17 4UH", "HACK_TYPE": "Meeting Room", "HACK_WIFI": "Y", "HACK_MARRIAGE": "N", "HACK_CATERING": "N", "HACK_ALCOHOL": "N", "HACK_LATE": "N", "HACK_MEETING_SIZE": "200"}, {"HACK_UUID": "2ce8dd42-a48d-4154-8b3f-56d0d9260f03", "SITE_NAME": "Sidmouth Park", "TOWN": "Leytonstone", "POST_CODE": "E17 6JY", "HACK_TYPE": "Hall", "HACK_WIFI": "N", "HACK_MARRIAGE": "Y", "HACK_CATERING": "Y", "HACK_ALCOHOL": "Y", "HACK_LATE": "Y", "HACK_MEETING_SIZE": "50"}, {"HACK_UUID": "9b64dc5a-0a3f-4381-b68d-2a69d772d8b7", "SITE_NAME": "St Egberts Playing Fields", "TOWN": "Chingford", "POST_CODE": "E4 7PR ", "HACK_TYPE": "Venue", "HACK_WIFI": "N", "HACK_MARRIAGE": "Y", "HACK_CATERING": "N", "HACK_ALCOHOL": "Y", "HACK_LATE": "N", "HACK_MEETING_SIZE": "40"}, {"HACK_UUID": "21d1842b-794e-499d-b0ce-5c40fb8fd34d", "SITE_NAME": "St James Park", "TOWN": "Walthamstow", "POST_CODE": "E4 9EJ", "HACK_TYPE": "Hall", "HACK_WIFI": "Y", "HACK_MARRIAGE": "Y", "HACK_CATERING": "Y", "HACK_ALCOHOL": "Y", "HACK_LATE": "N", "HACK_MEETING_SIZE": "200"}, {"HACK_UUID": "6b1feff1-3abf-41d6-9a7d-5988cdac1f3b", "SITE_NAME": "Linear Park", "TOWN": "Leytonstone", "POST_CODE": "E17 6QT", "HACK_TYPE": "Meeting Room", "HACK_WIFI": "N", "HACK_MARRIAGE": "N", "HACK_CATERING": "N", "HACK_ALCOHOL": "Y", "HACK_LATE": "Y", "HACK_MEETING_SIZE": "75"}, {"HACK_UUID": "ba3201f6-beb5-4ca5-9029-08c2034db6d2", "SITE_NAME": "Vestry Road Playground", "TOWN": "Walthamstow", "POST_CODE": "E10 7AS", "HACK_TYPE": "Meeting Room", "HACK_WIFI": "Y", "HACK_MARRIAGE": "N", "HACK_CATERING": "N", "HACK_ALCOHOL": "Y", "HACK_LATE": "Y", "HACK_MEETING_SIZE": "4"}, {"HACK_UUID": "3f980788-765a-4d84-8b5b-9588a187281e", "SITE_NAME": "Vincent Road", "TOWN": "Chingford", "POST_CODE": "E4 6HZ", "HACK_TYPE": "Meeting Room", "HACK_WIFI": "Y", "HACK_MARRIAGE": "N", "HACK_CATERING": "N", "HACK_ALCOHOL": "Y", "HACK_LATE": "Y", "HACK_MEETING_SIZE": "50"}, {"HACK_UUID": "73851473-7dab-4796-bed6-4ef8672fdd2c", "SITE_NAME": "Walthamstow Marshes", "TOWN": "Walthamstow", "POST_CODE": "E17 4JF", "HACK_TYPE": "Hall", "HACK_WIFI": "Y", "HACK_MARRIAGE": "Y", "HACK_CATERING": "Y", "HACK_ALCOHOL": "N", "HACK_LATE": "N", "HACK_MEETING_SIZE": "30"}]